CCSDS_OMM_VERS,COMMENT,CREATION_DATE,ORIGINATOR,OBJECT_NAME,OBJECT_ID,CENTER_NAME,REF_FRAME,TIME_SYSTEM,MEAN_ELEMENT_THEORY,EPOCH,MEAN_MOTION,ECCENTRICITY,INCLINATION,RA_OF_ASC_NODE,ARG_OF_PERICENTER,MEAN_ANOMALY,EPHEMERIS_TYPE,CLASSIFICATION_TYPE,NORAD_CAT_ID,ELEMENT_SET_NO,REV_AT_EPOCH,BSTAR,MEAN_MOTION_DOT,MEAN_MOTION_DDOT,SEMIMAJOR_AXIS,PERIOD,APOAPSIS,PERIAPSIS,OBJECT_TYPE,RCS_SIZE,COUNTRY_CODE,LAUNCH_DATE,SITE,DECAY_DATE,FILE,GP_ID,TLE_LINE0,TLE_LINE1,TLE_LINE2
"2.0","GENERATED VIA SPACE-TRACK.ORG API","2009-01-23T07:34:26","18 SPCS","IRIDIUM 33","1997-051C","EARTH","TEME","UTC","SGP4","2009-01-22T18:49:15.396671","14.34215067","0.00022540","86.3999","129.2156","82.5858","277.5585","0","U","24946","999","59475","0.00005109600000","0.00000163","0.0000000000000","7155.817","100.403","779.295","776.069","PAYLOAD","LARGE","US","1997-09-14","TTMTR","","662746","69615543","0 IRIDIUM 33","1 24946U 97051C   09022.78420598 +.00000163 +00000-0 +51096-4 0  9998","2 24946 086.3999 129.2156 0002254 082.5858 277.5585 14.34215067594758"
"2.0","GENERATED VIA SPACE-TRACK.ORG API","2009-01-23T08:04:48","18 SPCS","IRIDIUM 33","1997-051C","EARTH","TEME","UTC","SGP4","2009-01-23T08:12:59.491871","14.34215251","0.00022520","86.4000","128.9828","81.0495","279.0955","0","U","24946","999","59483","0.00005539400000","0.00000175","0.0000000000000","7155.817","100.403","779.293","776.070","PAYLOAD","LARGE","US","1997-09-14","TTMTR","","662854","69620202","0 IRIDIUM 33","1 24946U 97051C   09023.34235523  .00000175  00000-0  55394-4 0  9991","2 24946 086.4000 128.9828 0002252 081.0495 279.0955 14.34215251594835"
"2.0","GENERATED VIA SPACE-TRACK.ORG API","2009-01-23T06:46:48","18 SPCS","COSMOS 2251","1993-036A","EARTH","TEME","UTC","SGP4","2009-01-23T10:36:37.928159","14.31134843","0.00164520","74.0358","50.5315","135.0828","225.1657","0","U","22675","999","81497","0.00000701670000","-0.00000007","0.0000000000000","7166.081","100.619","799.736","776.156","PAYLOAD","LARGE","CIS","1993-06-16","PKMTR","","662761","69618284","0 COSMOS 2251","1 22675U 93036A   09023.44210565 -.00000007  00000-0  70167-5 0  9998","2 22675 074.0358 050.5315 0016452 135.0828 225.1657 14.31134843814974"
"2.0","GENERATED VIA SPACE-TRACK.ORG API","2009-01-24T07:42:57","18 SPCS","COSMOS 2251","1993-036A","EARTH","TEME","UTC","SGP4","2009-01-23T13:57:57.108671","14.31134913","0.00164510","74.0358","50.2768","134.7732","225.4765","0","U","22675","999","81499","0.00000952540000","-0.00000001","0.0000000000000","7166.081","100.619","799.735","776.157","PAYLOAD","LARGE","CIS","1993-06-16","PKMTR","","663069","69626472","0 COSMOS 2251","1 22675U 93036A   09023.58191098 -.00000001 +00000-0 +95254-5 0  9990","2 22675 074.0358 050.2768 0016451 134.7732 225.4765 14.31134913814995"
"2.0","GENERATED VIA SPACE-TRACK.ORG API","2009-01-24T07:42:57","18 SPCS","IRIDIUM 33","1997-051C","EARTH","TEME","UTC","SGP4","2009-01-23T19:56:15.556704","14.34215292","0.00022530","86.4001","128.7790","81.5684","278.5765","0","U","24946","999","59490","0.00004768000000","0.00000153","0.0000000000000","7155.816","100.403","779.294","776.069","PAYLOAD","LARGE","US","1997-09-14","TTMTR","","663069","69626855","0 IRIDIUM 33","1 24946U 97051C   09023.83073561 +.00000153 +00000-0 +47680-4 0  9992","2 24946 086.4001 128.7790 0002253 081.5684 278.5765 14.34215292594904"
"2.0","GENERATED VIA SPACE-TRACK.ORG API","2009-01-24T17:37:07","18 SPCS","IRIDIUM 33","1997-051C","EARTH","TEME","UTC","SGP4","2009-01-24T09:19:59.614752","14.34215545","0.00022340","86.4001","128.5460","81.4507","278.6941","0","U","24946","999","59498","0.00005591000000","0.00000176","0.0000000000000","7155.816","100.403","779.279","776.082","PAYLOAD","LARGE","US","1997-09-14","TTMTR","","663245","69631315","0 IRIDIUM 33","1 24946U 97051C   09024.38888443  .00000176  00000-0  55910-4 0  9996","2 24946 086.4001 128.5460 0002234 081.4507 278.6941 14.34215545594984"
"2.0","GENERATED VIA SPACE-TRACK.ORG API","2009-01-24T17:39:24","18 SPCS","IRIDIUM 33","1997-051C","EARTH","TEME","UTC","SGP4","2009-01-24T09:19:59.614752","14.34215545","0.00022340","86.4001","128.5460","81.4507","278.6941","0","U","24946","999","59498","0.00005591000000","0.00000176","0.0000000000000","7155.816","100.403","779.279","776.082","PAYLOAD","LARGE","US","1997-09-14","TTMTR","","663263","69631762","0 IRIDIUM 33","1 24946U 97051C   09024.38888443  .00000176  00000-0  55910-4 0  9996","2 24946 086.4001 128.5460 0002234 081.4507 278.6941 14.34215545594984"
"2.0","GENERATED VIA SPACE-TRACK.ORG API","2009-01-24T18:30:27","18 SPCS","COSMOS 2251","1993-036A","EARTH","TEME","UTC","SGP4","2009-01-24T13:27:11.343744","14.31135071","0.00164530","74.0357","48.4944","132.7525","227.5020","0","U","22675","999","81513","0.00001192000000","0.00000006","0.0000000000000","7166.080","100.619","799.736","776.155","PAYLOAD","LARGE","CIS","1993-06-16","PKMTR","","663377","69634451","0 COSMOS 2251","1 22675U 93036A   09024.56054796  .00000006  00000-0  11920-4 0  9993","2 22675 074.0357 048.4944 0016453 132.7525 227.5020 14.31135071815139"
"2.0","GENERATED VIA SPACE-TRACK.ORG API","2009-01-25T09:03:09","18 SPCS","IRIDIUM 33","1997-051C","EARTH","TEME","UTC","SGP4","2009-01-24T19:22:47.657856","14.34215626","0.00022370","86.4001","128.3713","81.2257","278.9187","0","U","24946","999","59504","0.00005234600000","0.00000166","0.0000000000000","7155.815","100.403","779.281","776.080","PAYLOAD","LARGE","US","1997-09-14","TTMTR","","663610","69644570","0 IRIDIUM 33","1 24946U 97051C   09024.80749604 +.00000166 +00000-0 +52346-4 0  9997","2 24946 086.4001 128.3713 0002237 081.2257 278.9187 14.34215626595049"
"2.0","GENERATED VIA SPACE-TRACK.ORG API","2009-01-25T07:24:02","18 SPCS","IRIDIUM 33","1997-051C","EARTH","TEME","UTC","SGP4","2009-01-25T12:07:27.776640","14.34215330","0.00022390","86.4003","128.0803","82.0074","278.1377","0","U","24946","999","59514","0.00001924400000","0.00000074","0.0000000000000","7155.816","100.403","779.283","776.079","PAYLOAD","LARGE","US","1997-09-14","TTMTR","","663541","69638208","0 IRIDIUM 33","1 24946U 97051C   09025.50518260  .00000074  00000-0  19244-4 0  9995","2 24946 086.4003 128.0803 0002239 082.0074 278.1377 14.34215330595142"
"2.0","GENERATED VIA SPACE-TRACK.ORG API","2009-01-26T07:47:41","18 SPCS","COSMOS 2251","1993-036A","EARTH","TEME","UTC","SGP4","2009-01-25T12:56:25.577088","14.31135104","0.00163870","74.0357","46.7118","130.5819","229.6761","0","U","22675","999","81527","0.00000952860000","-0.00000001","0.0000000000000","7166.080","100.619","799.688","776.202","PAYLOAD","LARGE","CIS","1993-06-16","PKMTR","","663910","69656544","0 COSMOS 2251","1 22675U 93036A   09025.53918492 -.00000001 +00000-0 +95286-5 0  9997","2 22675 074.0357 046.7118 0016387 130.5819 229.6761 14.31135104815278"
"2.0","GENERATED VIA SPACE-TRACK.ORG API","2009-01-25T08:27:41","18 SPCS","IRIDIUM 33","1997-051C","EARTH","TEME","UTC","SGP4","2009-01-25T13:47:55.785407","14.34215375","0.00022430","86.4003","128.0512","81.8081","278.3370","0","U","24946","999","59515","0.00002229400000","0.00000082","0.0000000000000","7155.816","100.403","779.286","776.076","PAYLOAD","LARGE","US","1997-09-14","TTMTR","","663637","69647502","0 IRIDIUM 33","1 24946U 97051C   09025.57495122  .00000082  00000-0  22294-4 0  9991","2 24946 086.4003 128.0512 0002243 081.8081 278.3370 14.34215375595154"
"2.0","GENERATED VIA SPACE-TRACK.ORG API","2009-01-26T07:47:41","18 SPCS","IRIDIUM 33","1997-051C","EARTH","TEME","UTC","SGP4","2009-01-25T22:10:15.819744","14.34215502","0.00022570","86.4004","127.9057","81.8054","278.3397","0","U","24946","999","59520","0.00002908900000","0.00000101","0.0000000000000","7155.816","100.403","779.296","776.066","PAYLOAD","LARGE","US","1997-09-14","TTMTR","","663910","69656904","0 IRIDIUM 33","1 24946U 97051C   09025.92379421 +.00000101 +00000-0 +29089-4 0  9994","2 24946 086.4004 127.9057 0002257 081.8054 278.3397 14.34215502595209"
"2.0","GENERATED VIA SPACE-TRACK.ORG API","2009-01-26T02:52:36","18 SPCS","COSMOS 2251","1993-036A","EARTH","TEME","UTC","SGP4","2009-01-26T02:21:42.286176","14.31135167","0.00163800","74.0358","45.6932","129.4389","230.8222","0","U","22675","999","81535","0.00000948410000","-0.00000001","0.0000000000000","7166.080","100.619","799.683","776.207","PAYLOAD","LARGE","CIS","1993-06-16","PKMTR","","663816","69649997","0 COSMOS 2251","1 22675U 93036A   09026.09840609 -.00000001  00000-0  94841-5 0  9999","2 22675 074.0358 045.6932 0016380 129.4389 230.8222 14.31135167815357"
"2.0","GENERATED VIA SPACE-TRACK.ORG API","2009-01-26T08:08:38","18 SPCS","IRIDIUM 33","1997-051C","EARTH","TEME","UTC","SGP4","2009-01-26T09:53:31.839647","14.34215856","0.00022180","86.4003","127.7020","82.3026","277.8420","0","U","24946","999","59527","0.00005099000000","0.00000163","0.0000000000000","7155.815","100.403","779.267","776.092","PAYLOAD","LARGE","US","1997-09-14","TTMTR","","664010","69661031","0 IRIDIUM 33","1 24946U 97051C   09026.41217407  .00000163  00000-0  50990-4 0  9997","2 24946 086.4003 127.7020 0002218 082.3026 277.8420 14.34215856595278"
"2.0","GENERATED VIA SPACE-TRACK.ORG API","2009-01-26T08:10:31","18 SPCS","IRIDIUM 33","1997-051C","EARTH","TEME","UTC","SGP4","2009-01-26T09:53:31.839647","14.34215856","0.00022180","86.4003","127.7020","82.3026","277.8420","0","U","24946","999","59527","0.00005099000000","0.00000163","0.0000000000000","7155.815","100.403","779.267","776.092","PAYLOAD","LARGE","US","1997-09-14","TTMTR","","664012","69661080","0 IRIDIUM 33","1 24946U 97051C   09026.41217407  .00000163  00000-0  50990-4 0  9997","2 24946 086.4003 127.7020 0002218 082.3026 277.8420 14.34215856595278"
